[{"OBJECT_NAME":"STARLINK-3738","OBJECT_ID":"2022-029AF","EPOCH":"2026-03-09T11:03:31.042080","MEAN_MOTION":15.08843239,"ECCENTRICITY":0.0001561,"INCLINATION":53.217,"RA_OF_ASC_NODE":80.1493,"ARG_OF_PERICENTER":89.9456,"MEAN_ANOMALY":270.1716,"EPHEMERIS_TYPE":0,"CLASSIFICATION_TYPE":"U","NORAD_CAT_ID":52117,"ELEMENT_SET_NO":999,"REV_AT_EPOCH":22076,"BSTAR":0.00012933539,"MEAN_MOTION_DOT":1.771e-5,"MEAN_MOTION_DDOT":0},{"OBJECT_NAME":"FENGYUN 1C DEB","OBJECT_ID":"1999-025EXB","EPOCH":"2026-02-23T13:42:59.544864","MEAN_MOTION":14.51393564,"ECCENTRICITY":0.0280295,"INCLINATION":99.4251,"RA_OF_ASC_NODE":186.6378,"ARG_OF_PERICENTER":116.5278,"MEAN_ANOMALY":246.4942,"EPHEMERIS_TYPE":0,"CLASSIFICATION_TYPE":"U","NORAD_CAT_ID":40695,"ELEMENT_SET_NO":999,"REV_AT_EPOCH":32922,"BSTAR":0.00034500254,"MEAN_MOTION_DOT":2.228e-5,"MEAN_MOTION_DDOT":0}]
